ARIANE 40 R/B           
1 20443U 90005H   25348.89355364  .00000328  00000+0  11806-3 0  9993
2 20443  98.3242  47.0106 0011296  99.9205 260.3259 14.39800229880601
DELTA 2 R/B(1)          
1 20453U 90008B   25348.75359022  .00034113  00000+0  54314-3 0  9997
2 20453  35.6078   7.5285 0111269 196.9135 162.7872 15.45403438912941
COSMOS 2058             
1 20465U 90010A   25348.87781091  .00004406  00000+0  26578-3 0  9994
2 20465  82.4668 130.9268 0008409 263.8608  96.1663 15.10493436929430
SL-14 R/B               
1 20466U 90010B   25348.97133414  .00000493  00000+0  56998-4 0  9998
2 20466  82.5020 346.9511 0018859 215.3831 144.6135 14.83473216915929
SL-14 R/B               
1 20511U 90018B   25348.90769835  .00000556  00000+0  66898-4 0  9992
2 20511  82.5211 302.3380 0016836  16.4707 343.7051 14.82048754910026
HST                     
1 20580U 90037B   25348.81671679  .00006498  00000+0  22258-3 0  9999
2 20580  28.4683 258.3524 0001797 266.6247  93.4143 15.28088062760315
SL-16 R/B               
1 20625U 90046B   25348.79598740 -.00000160  00000+0 -58217-4 0  9990
2 20625  70.9990 116.2031 0011854  69.4266 290.8127 14.15000952836381
COSMOS 2084             
1 20663U 90055A   25348.89350707  .00002290  00000+0  17306-3 0  9999
2 20663  62.7904 264.6542 0031403 175.0375 185.1043 15.05034034923556
SL-6 R/B(2)             
1 20666U 90055D   25348.89622546  .00001839  00000+0  15012-3 0  9995
2 20666  62.7820 182.0884 0012935 310.5499  49.4473 15.03085436925449
SL-8 R/B                
1 20775U 90078B   25348.88584702  .00016441  00000+0  50864-3 0  9990
2 20775  82.9045 327.3896 0371603 298.6827  57.7501 14.86037544796695
SL-8 R/B                
1 21088U 91006B   25348.91972659  .00000073  00000+0  57737-4 0  9997
2 21088  82.9426 233.0915 0021188 273.3716  97.2495 13.77490269752406
OKEAN-3                 
1 21397U 91039A   25348.67794681  .00003932  00000+0  28125-3 0  9991
2 21397  82.5176  59.1714 0013091 259.2517 100.7235 15.04134711852252
COSMOS 2151             
1 21422U 91042A   25348.89176861  .00001805  00000+0  14401-3 0  9991
2 21422  82.4957 165.4292 0012393 352.7235   7.3807 14.99694235850484
SL-14 R/B               
1 21423U 91042B   25348.94296458  .00000491  00000+0  59138-4 0  9990
2 21423  82.4927 299.6568 0017652 154.7304 205.4778 14.81740833840527
ERS-1                   
1 21574U 91050A   25348.89187995  .00000380  00000+0  13610-3 0  9996
2 21574  98.7904   0.0005 0033032  93.8751 266.6214 14.39366366803530
ARIANE 40 R/B           
1 21610U 91050F   25348.72827118  .00000418  00000+0  13786-3 0  9993
2 21610  98.2164  39.0870 0002659 354.4381   5.6780 14.42815129806747
INTERCOSMOS 25          
1 21819U 91086A   25348.86451389  .00001685  00000+0  33527-3 0  9993
2 21819  82.6069   1.2913 1486515 299.8160  46.3195 12.11733958486416
SL-8 R/B                
1 21876U 92008B   25348.93296881  .00000142  00000+0  13023-3 0  9999
2 21876  82.9266 330.8149 0035059  13.7563  44.3330 13.75959344697766
SL-8 R/B                
1 21938U 92020B   25348.94041383  .00000110  00000+0  98561-4 0  9994
2 21938  82.9303 216.6835 0029042 171.9848 199.4155 13.75527553689488
USA 81                  
1 21949U 92023A   25348.92024495  .00000217  00000+0  72952-4 0  9996
2 21949  85.0080 180.3187 0001314  67.0695 293.0636 14.32327625 82653
COSMOS 2219             
1 22219U 92076A   25348.91754213  .00000048  00000+0  50179-4 0  9991
2 22219  71.0574 195.2803 0019115 323.9157  36.0674 14.14062716706390
SL-16 R/B               
1 22220U 92076B   25348.78657880  .00000053  00000+0  50289-4 0  9998
2 22220  71.0005   7.2202 0014666 231.2832 301.9086 14.16841003709809
COSMOS 2221             
1 22236U 92080A   25348.75787375  .00001929  00000+0  17033-3 0  9992
2 22236  82.5044   0.3938 0016134 115.4743 244.8150 14.95769434768099
SL-16 R/B               
1 22285U 92093B   25348.93489748  .00000352  00000+0  20483-3 0  9995
2 22285  71.0200 182.1878 0002210  64.3139 295.8212 14.15431024701166
COSMOS 2228             
1 22286U 92094A   25348.89648372  .00001916  00000+0  16502-3 0  9996
2 22286  82.5176 318.4706 0016659 223.4158 136.5753 14.96740903763371
SL-16 R/B               
1 22566U 93016B   25348.82549897  .00000025  00000+0  37080-4 0  9992
2 22566  71.0080  33.4232 0007939  93.5255 266.6776 14.15286904690165
COSMOS 2242             
1 22626U 93024A   25348.97661697  .00001662  00000+0  14525-3 0  9993
2 22626  82.5188 347.7069 0015072 225.9621 134.0360 14.96116537767729
SL-16 R/B               
1 22803U 93059B   25348.92016589 -.00000166  00000+0 -58082-4 0  9994
2 22803  70.9886 189.8885 0018118 332.4699  27.5463 14.17213300667522
ARIANE 40 R/B           
1 22830U 93061H   25348.78310272  .00000315  00000+0  13122-3 0  9996
2 22830  98.5075  54.2758 0010996 170.0729 190.0674 14.32802813681940
COSMOS 2278             
1 23087U 94023A   25348.72837665 -.00000187  00000+0 -73264-4 0  9997
2 23087  71.0539 352.8505 0008216 176.4765 183.6417 14.14349943632797
SL-16 R/B               
1 23088U 94023B   25348.88427822 -.00000088  00000+0 -21079-4 0  9992
2 23088  71.0003 248.9824 0001489  19.8906 340.2275 14.15002958634096
SL-16 R/B               
1 23343U 94074B   25348.86040094  .00000526  00000+0  77310-4 0  9996
2 23343  97.7201  18.0807 0007674 129.9041  43.1397 14.79291833674705
SL-16 R/B               
1 23405U 94077B   25348.89897258  .00000265  00000+0  16000-3 0  9991
2 23405  70.9812 170.8709 0004705 282.5095  77.5501 14.15551108604233
ARIANE 40+ R/B          
1 23561U 95021B   25348.83132895  .00000366  00000+0  13091-3 0  9996
2 23561  98.4649  56.3949 0007404  44.5117  67.2244 14.39697156607034
SL-16 R/B               
1 23705U 95058B   25348.76042309 -.00000056  00000+0 -40453-5 0  9990
2 23705  71.0225 358.5619 0014981 252.8983 107.0500 14.15484132555835
SL-16 R/B               
1 24298U 96051B   25348.75492771  .00000038  00000+0  47087-4 0  9990
2 24298  70.7596 355.0183 0019434 258.8777 101.0158 14.12397110509651
ORBVIEW 2 (SEASTAR)     
1 24883U 97037A   25348.93677175  .00000326  00000+0  12979-3 0  9999
2 24883  98.8457 146.0665 0001568 333.3486  26.7618 14.35418766496314
SL-16 R/B               
1 25400U 98043G   25348.83315695  .00000079  00000+0  52034-4 0  9990
2 25400  98.8127 296.6630 0008782 259.9370 100.0819 14.26026123426895
SL-16 R/B               
1 25407U 98045B   25348.74245756 -.00000139  00000+0 -46057-4 0  9996
2 25407  71.0116   0.2151 0006810 174.3063 185.8139 14.16174656415077
ISS (ZARYA)             
1 25544U 98067A   25348.86277765  .00007299  00000+0  13766-3 0  9992
2 25544  51.6306 131.9662 0003207 249.8734 110.1909 15.49595360543189
CZ-4B R/B               
1 25732U 99025C   25348.73422029  .00000100  00000+0  69202-4 0  9998
2 25732  98.6767  29.9696 0036358 228.1419 242.2149 14.18244134376122
OKEAN-O                 
1 25860U 99039A   25348.88521030  .00000821  00000+0  11495-3 0  9993
2 25860  97.9603  44.5683 0000857 102.9997 257.1310 14.80164818421843
SL-16 R/B               
1 25861U 99039B   25348.87823311  .00000673  00000+0  92426-4 0  9999
2 25861  98.0126  43.0296 0015094 167.7528 192.4054 14.81589407424304
DELTA 2 R/B             
1 25876U 99041E   25348.83796006  .00001366  00000+0  25953-3 0  9994
2 25876  51.7611 280.0698 0504659  97.9514 267.8980 14.11408001351041
HELIOS 1B               
1 25977U 99064A   25348.68724850  .00001894  00000+0  21647-3 0  9994
2 25977  98.1756 243.4106 0001592  41.6450 318.4886 14.87292830672620
TERRA                   
1 25994U 99068A   25348.93383295  .00000518  00000+0  11496-3 0  9992
2 25994  97.9748  40.5378 0003601  90.1900  12.8116 14.60904220382708
SL-16 R/B               
1 26070U 00006B   25348.87711554 -.00000219  00000+0 -86833-4 0  9996
2 26070  71.0029 276.1634 0018551 305.7047  54.2349 14.15810062336558
TITAN 4B R/B            
1 26474U 00047B   25348.93065901  .00002854  00000+0  18652-3 0  9992
2 26474  67.9898 278.7016 0038763 141.8111 218.5796 15.08799729380126
ENVISAT                 
1 27386U 02009A   25348.84467566  .00000167  00000+0  68088-4 0  9992
2 27386  98.3602 299.5319 0001135  83.7193 297.2822 14.39000147246974
IDEFIX & ARIANE 42P R/B 
1 27422U 02021B   25348.82079783  .00000376  00000+0  15941-3 0  9996
2 27422  98.5788 283.4847 0012956  78.0750 282.1885 14.30952157231883
AQUA                    
1 27424U 02022A   25348.94512740  .00001173  00000+0  24484-3 0  9995
2 27424  98.4040 309.8600 0001168 114.5725 290.1501 14.61814090256356
CZ-4B R/B               
1 27432U 02024C   25348.93120994  .00000063  00000+0  55437-4 0  9991
2 27432  98.8998  37.6953 0049156 263.5486 270.2326 14.14528196217253
MIDORI II (ADEOS-II)    
1 27597U 02056A   25348.88567773  .00000294  00000+0  13365-3 0  9991
2 27597  98.7638 301.8532 0000292 155.6014 204.5181 14.29207176198187
H-2A R/B                
1 27601U 02056E   25348.91485090  .00000396  00000+0  15303-3 0  9999
2 27601  98.3068 307.5849 0071330  54.7602  10.8846 14.33677931201965
CZ-4B R/B               
1 28059U 03049C   25348.93390941  .00000406  00000+0  10466-3 0  9999
2 28059  98.6790 335.5807 0049095 129.4878 231.0675 14.54911227174273
CZ-2C R/B               
1 28222U 04012C   25348.92654265  .00028155  00000+0  40766-3 0  9990
2 28222  97.7425  41.7286 0016438 261.8135  98.1254 15.55702397191068
SL-16 R/B               
1 28353U 04021B   25348.88435003 -.00000235  00000+0 -97720-4 0  9991
2 28353  71.0014  50.4650 0005166 196.9290 163.1661 14.14579811110849
CZ-4B R/B               
1 28415U 04035C   25348.65780792  .00007136  00000+0  26493-3 0  9991
2 28415  97.3612  18.9764 0031534 270.3323  89.4303 15.27408687166920
CZ-2C R/B               
1 28480U 04046B   25348.78206862  .00000254  00000+0  10910-3 0  9991
2 28480  98.1989 264.0329 0140414  46.3098 314.9618 14.26942051 96391
